[Satellite]
VERSION=1.1
NAME=IRIDIUM 108 [+]
NICKNAME=IRIDIUM 108 [+]
TLE1=1 41924U 17003H   18020.92314953  .00000235  00000-0  24661-4 0  9991
TLE2=2 41924  85.8812 262.5986 0011091  26.9942 333.1855 14.84211610 55046
